NORAD_CAT_ID,OBJECT_NAME,OBJECT_TYPE,EPOCH,MEAN_MOTION,ECCENTRICITY,INCLINATION,RA_OF_ASC_NODE,ARG_OF_PERICENTER,MEAN_ANOMALY,BSTAR,MEAN_MOTION_DOT,MEAN_MOTION_DDOT,TLE_LINE0,TLE_LINE1,TLE_LINE2,SEMIMAJOR_AXIS,PERIOD,APOGEE,PERIGEE,DECAYED
53254.0,STARLINK-4134,PAYLOAD,2022-08-19 22:00:00,15.73163053,0.0003285,53.2187,272.783,9.5695,60.7838,-2.9373e-05,-4.738e-05,0.0,0 STARLINK-4134,1 53254U 22086N   22231.91667824 -.00004738  00000-0 -29373-4 0  9992,2 53254  53.2187 272.7830 0003285   9.5695  60.7838 15.73163053  4783,6728.001,91.535,352.076,347.655,0.0
53254.0,STARLINK-4134,PAYLOAD,2022-08-20 14:00:01,15.73136739,0.0003573,53.2181,269.4866,8.2482,239.8655,0.00060344,0.00084716,0.0,0 STARLINK-4134,1 53254U 22086N   22232.58334491  .00084716  00000-0  60344-3 0  9991,2 53254  53.2181 269.4866 0003573   8.2482 239.8655 15.73136739  1301,6728.076,91.537,352.344,347.537,0.0
53254.0,STARLINK-4134,PAYLOAD,2022-08-20 22:00:00,15.73163685,0.0003333,53.2182,267.8352,10.0784,326.9311,0.00052582,0.00073724,0.0,0 STARLINK-4134,1 53254U 22086N   22232.91667824  .00073724  00000-0  52582-3 0  9999,2 53254  53.2182 267.8352 0003333  10.0784 326.9311 15.73163685  1301,6727.999,91.535,352.106,347.621,0.0
53254.0,STARLINK-4134,PAYLOAD,2022-08-21 14:00:01,15.73207176,0.000365,53.2182,264.5384,8.5835,146.2955,-1.5257e-05,-2.766e-05,0.0,0 STARLINK-4134,1 53254U 22086N   22233.58334491 -.00002766  00000-0 -15257-4 0  9993,2 53254  53.2182 264.5384 0003650   8.5835 146.2955 15.73207176  1302,6727.875,91.533,352.195,347.284,0.0
53254.0,STARLINK-4134,PAYLOAD,2022-08-21 22:00:00,15.73173917,0.0003435,53.2183,262.887,8.5265,235.293,0.00053744,0.00075417,0.0,0 STARLINK-4134,1 53254U 22086N   22233.91667824  .00075417  00000-0  53744-3 0  9992,2 53254  53.2183 262.8870 0003435   8.5265 235.2930 15.73173917  1309,6727.97,91.535,352.146,347.523,0.0
53254.0,STARLINK-4134,PAYLOAD,2022-08-22 06:00:00,15.73245892,0.0003526999999999,53.218,261.2388,9.8474,322.903,1.8833e-06,-3.59e-06,0.0,0 STARLINK-4134,1 53254U 22086N   22234.25001157 -.00000359  00000-0  18833-5 0  9997,2 53254  53.2180 261.2388 0003527   9.8474 322.9030 15.73245892  5144,6727.764,91.531,352.00199999999984,347.256,0.0
53254.0,STARLINK-4134,PAYLOAD,2022-08-22 12:00:00,15.73240448,0.0003688999999999,53.2177,260.003,8.8179,300.6558,-0.00012713,-0.00018465,0.0,0 STARLINK-4134,1 53254U 22086N   22234.50001157 -.00018465  00000-0 -12713-3 0  9992,2 53254  53.2177 260.0030 0003689   8.8179 300.6558 15.73240448  1305,6727.78,91.531,352.12699999999984,347.163,0.0
53254.0,STARLINK-4134,PAYLOAD,2022-08-22 22:00:00,15.7319277,0.000342,53.2174,257.9388,8.5066,142.1829,0.00029325,0.0004073,0.0,0 STARLINK-4134,1 53254U 22086N   22234.91667824  .00040730  00000-0  29325-3 0  9991,2 53254  53.2174 257.9388 0003420   8.5066 142.1829 15.73192770  5250,6727.916,91.534,352.082,347.48,0.0
53254.0,STARLINK-4134,PAYLOAD,2022-08-23 06:00:00,15.73212438,0.0003618999999999,53.2177,256.2906,12.6778,226.9529,-0.00033241,-0.00047058,0.0,0 STARLINK-4134,1 53254U 22086N   22235.25001157 -.00047058  00000-0 -33241-3 0  9994,2 53254  53.2177 256.2906 0003619  12.6778 226.9529 15.73212438  5305,6727.86,91.532,352.16,347.29,0.0
53254.0,STARLINK-4134,PAYLOAD,2022-08-23 14:00:01,15.73178004,0.0003822,53.2174,254.642,12.6617,315.8792,0.0003009,0.00041791,0.0,0 STARLINK-4134,1 53254U 22086N   22235.58334491  .00041791  00000-0  30090-3 0  9995,2 53254  53.2174 254.6420 0003822  12.6617 315.8792 15.73178004  1309,6727.958000000001,91.534,352.394,347.251,0.0
53254.0,STARLINK-4134,PAYLOAD,2022-08-23 20:00:01,15.73186641,0.0003618999999999,53.2176,253.4034,14.6421,290.5894,0.00030427,0.00042283,0.0,0 STARLINK-4134,1 53254U 22086N   22235.83334491  .00042283  00000-0  30427-3 0  9994,2 53254  53.2176 253.4034 0003619  14.6421 290.5894 15.73186641  5399,6727.933000000001,91.534,352.233,347.36300000000006,0.0
53254.0,STARLINK-4134,PAYLOAD,2022-08-23 22:00:01,15.73178066,0.0003576,53.2174,252.9906,14.9965,42.5359,0.00052482,0.00073631,0.0,0 STARLINK-4134,1 53254U 22086N   22235.91668981  .00073631  00000-0  52482-3 0  9993,2 53254  53.2174 252.9906 0003576  14.9965  42.5359 15.73178066  1307,6727.958000000001,91.534,352.22900000000016,347.417,0.0
53254.0,STARLINK-4134,PAYLOAD,2022-08-24 14:00:01,15.73270284,0.0003793,53.2163,249.6938,14.4532,220.8981,-0.00048747,-0.00068718,0.0,0 STARLINK-4134,1 53254U 22086N   22236.58334491 -.00068718  00000-0 -48747-3 0  9994,2 53254  53.2163 249.6938 0003793  14.4532 220.8981 15.73270284  1306,6727.695,91.529,352.112,347.0080000000001,0.0
53254.0,STARLINK-4134,PAYLOAD,2022-08-24 22:00:00,15.73172138,0.0003537,53.2166,248.0421,14.6467,309.7036,0.00053703,0.00075354,0.0,0 STARLINK-4134,1 53254U 22086N   22236.91667824  .00075354  00000-0  53703-3 0  9990,2 53254  53.2166 248.0421 0003537  14.6467 309.7036 15.73172138  5563,6727.975,91.535,352.219,347.46,0.0
53254.0,STARLINK-4134,PAYLOAD,2022-08-25 14:00:01,15.73205413,0.0003373,53.2173,244.7314,14.5302,127.5888,-1.6621e-05,-2.957e-05,0.0,0 STARLINK-4134,1 53254U 22086N   22237.58334491 -.00002957  00000-0 -16621-4 0  9995,2 53254  53.2173 244.7314 0003373  14.5302 127.5888 15.73205413  5676,6727.88,91.533,352.014,347.475,0.0
53254.0,STARLINK-4134,PAYLOAD,2022-08-25 18:00:00,15.73189801,0.0003638999999999,53.2169,243.9191,12.6294,354.0767,6.8813e-05,9.043e-05,0.0,0 STARLINK-4134,1 53254U 22086N   22237.75001157  .00009043  00000-0  68813-4 0  9995,2 53254  53.2169 243.9191 0003639  12.6294 354.0767 15.73189801  5696,6727.924,91.534,352.23800000000006,347.341,0.0
53254.0,STARLINK-4134,PAYLOAD,2022-08-25 22:00:00,15.73172565,0.0003581,53.2166,243.0936,13.3358,217.8347,0.00048963,0.00068595,0.0,0 STARLINK-4134,1 53254U 22086N   22237.91667824  .00068595  00000-0  48963-3 0  9992,2 53254  53.2166 243.0936 0003581  13.3358 217.8347 15.73172565  1309,6727.973000000001,91.535,352.24800000000016,347.42900000000014,0.0
53254.0,STARLINK-4134,PAYLOAD,2022-08-26 14:00:01,15.7320175,0.0003787,53.2158,239.7963,11.8495,37.2764,-4.531600000000001e-05,-6.982e-05,0.0,0 STARLINK-4134,1 53254U 22086N   22238.58335648 -.00006982  00000-0 -45316-4 0  9996,2 53254  53.2158 239.7963 0003787  11.8495  37.2764 15.73201750  1301,6727.89,91.533,352.30300000000005,347.207,0.0
53254.0,STARLINK-4134,PAYLOAD,2022-08-26 20:00:01,15.73169006,0.0003529,53.2162,238.5576,12.4464,13.3142,0.0005056,0.0007086,0.0,0 STARLINK-4134,1 53254U 22086N   22238.83334491  .00070860  00000-0  50560-3 0  9999,2 53254  53.2162 238.5576 0003529  12.4464  13.3142 15.73169006  5878,6727.984,91.535,352.223,347.474,0.0
53254.0,STARLINK-4134,PAYLOAD,2022-08-26 22:00:00,15.73179777,0.0003501,53.2161,238.145,12.9968,124.99,0.00048172,0.00067487,0.0,0 STARLINK-4134,1 53254U 22086N   22238.91667824  .00067487  00000-0  48172-3 0  9994,2 53254  53.2161 238.1450 0003501  12.9968 124.9900 15.73179777  1309,6727.953,91.534,352.173,347.462,0.0
53254.0,STARLINK-4134,PAYLOAD,2022-08-27 14:00:01,15.73196274,0.0003759,53.2165,234.8476,10.1549,305.6904,4.959399999999999e-05,6.343e-05,0.0,0 STARLINK-4134,1 53254U 22086N   22239.58334491  .00006343  00000-0  49594-4 0  9993,2 53254  53.2165 234.8476 0003759  10.1549 305.6904 15.73196274  1307,6727.906,91.533,352.3,347.242,0.0
53254.0,STARLINK-4134,PAYLOAD,2022-08-27 22:00:00,15.73200848,0.0003551,53.2166,233.1965,11.9004,32.873000000000005,0.00022637,0.00031275,0.0,0 STARLINK-4134,1 53254U 22086N   22239.91667824  .00031275  00000-0  22637-3 0  9999,2 53254  53.2166 233.1965 0003551  11.9004  32.8730 15.73200848  1307,6727.893,91.533,352.147,347.369,0.0
53254.0,STARLINK-4134,PAYLOAD,2022-08-28 14:00:01,15.73223345,0.000371,53.216,229.8989,9.9548,212.7082,2.619e-05,3.057e-05,0.0,0 STARLINK-4134,1 53254U 22086N   22240.58334491  .00003057  00000-0  26190-4 0  9991,2 53254  53.2160 229.8989 0003710   9.9548 212.7082 15.73223345  1302,6727.829000000002,91.532,352.19,347.1980000000001,0.0
53254.0,STARLINK-4134,PAYLOAD,2022-08-28 22:00:00,15.73250636,0.0003406,53.2163,228.2478,8.8855,302.7277,-0.00044586,-0.00062889,0.0,0 STARLINK-4134,1 53254U 22086N   22240.91667824 -.00062889  00000-0 -44586-3 0  9995,2 53254  53.2163 228.2478 0003406   8.8855 302.7277 15.73250636  1301,6727.751,91.53,351.907,347.324,0.0
53254.0,STARLINK-4134,PAYLOAD,2022-08-29 06:00:02,15.73165952,0.0003623,53.2166,226.6002,6.096,34.5391,-0.00024472,-0.0003478999999999,0.0,0 STARLINK-4134,1 53254U 22086N   22241.25002315 -.00034790  00000-0 -24472-3 0  9993,2 53254  53.2166 226.6002 0003623   6.0960  34.5391 15.73165952  6259,6727.9919999999975,91.535,352.295,347.42,0.0
53254.0,STARLINK-4134,PAYLOAD,2022-08-29 14:00:01,15.73171447,0.0003674,53.2168,224.9503,5.1960000000000015,124.2392,-2.2793e-05,-3.819e-05,0.0,0 STARLINK-4134,1 53254U 22086N   22241.58334491 -.00003819  00000-0 -22793-4 0  9995,2 53254  53.2168 224.9503 0003674   5.1960 124.2392 15.73171447  1309,6727.977,91.535,352.31300000000016,347.37,0.0
53254.0,STARLINK-4134,PAYLOAD,2022-08-29 22:00:00,15.73171187,0.0003469,53.217,223.2996,7.5813,210.75,0.00045883,0.00064202,0.0,0 STARLINK-4134,1 53254U 22086N   22241.91667824  .00064202  00000-0  45883-3 0  9996,2 53254  53.2170 223.2996 0003469   7.5813 210.7500 15.73171187  1308,6727.977,91.535,352.176,347.5080000000001,0.0
53254.0,STARLINK-4134,PAYLOAD,2022-08-30 14:00:01,15.73260568,0.0003647,53.2164,220.002,7.2657,28.9361,-0.00073714,-0.0010313,0.0,0 STARLINK-4134,1 53254U 22086N   22242.58334491 -.00103130  00000-0 -73714-3 0  9991,2 53254  53.2164 220.0020 0003647   7.2657  28.9361 15.73260568  6463,6727.722,91.53,352.041,347.134,0.0
53254.0,STARLINK-4134,PAYLOAD,2022-08-30 22:00:00,15.73167295,0.0003456,53.2165,218.3483,9.8922,115.2707,-0.00011804,-0.00017138,0.0,0 STARLINK-4134,1 53254U 22086N   22242.91667824 -.00017138  00000-0 -11804-3 0  9991,2 53254  53.2165 218.3483 0003456   9.8922 115.2707 15.73167295  1303,6727.988,91.535,352.17900000000014,347.528,0.0
